[{"OBJECT_NAME":"STARLINK-35028","OBJECT_ID":"2025-191C","EPOCH":"2026-03-03T04:10:31.880640","MEAN_MOTION":15.05651545,"ECCENTRICITY":0.0002284,"INCLINATION":97.6033,"RA_OF_ASC_NODE":295.1778,"ARG_OF_PERICENTER":64.4994,"MEAN_ANOMALY":295.6469,"EPHEMERIS_TYPE":0,"CLASSIFICATION_TYPE":"U","NORAD_CAT_ID":65381,"ELEMENT_SET_NO":999,"REV_AT_EPOCH":2929,"BSTAR":0.00039673,"MEAN_MOTION_DOT":5.669e-5,"MEAN_MOTION_DDOT":0},{"OBJECT_NAME":"STARLINK-35032","OBJECT_ID":"2025-191D","EPOCH":"2026-03-03T03:26:39.208704","MEAN_MOTION":15.05651543,"ECCENTRICITY":0.0001603,"INCLINATION":97.6011,"RA_OF_ASC_NODE":295.0606,"ARG_OF_PERICENTER":93.617,"MEAN_ANOMALY":266.524,"EPHEMERIS_TYPE":0,"CLASSIFICATION_TYPE":"U","NORAD_CAT_ID":65382,"ELEMENT_SET_NO":999,"REV_AT_EPOCH":2928,"BSTAR":0.0001505,"MEAN_MOTION_DOT":2.112e-5,"MEAN_MOTION_DDOT":0},{"OBJECT_NAME":"STARLINK-35054","OBJECT_ID":"2025-191E","EPOCH":"2026-03-03T04:02:32.306208","MEAN_MOTION":15.05651559,"ECCENTRICITY":0.0002451,"INCLINATION":97.6036,"RA_OF_ASC_NODE":295.0311,"ARG_OF_PERICENTER":79.1621,"MEAN_ANOMALY":280.9881,"EPHEMERIS_TYPE":0,"CLASSIFICATION_TYPE":"U","NORAD_CAT_ID":65383,"ELEMENT_SET_NO":999,"REV_AT_EPOCH":2928,"BSTAR":0.00021346,"MEAN_MOTION_DOT":3.021e-5,"MEAN_MOTION_DDOT":0},{"OBJECT_NAME":"STARLINK-35012","OBJECT_ID":"2025-191F","EPOCH":"2026-03-03T03:38:36.896352","MEAN_MOTION":15.05649963,"ECCENTRICITY":0.0001944,"INCLINATION":97.6013,"RA_OF_ASC_NODE":295.0489,"ARG_OF_PERICENTER":91.0317,"MEAN_ANOMALY":269.1133,"EPHEMERIS_TYPE":0,"CLASSIFICATION_TYPE":"U","NORAD_CAT_ID":65384,"ELEMENT_SET_NO":999,"REV_AT_EPOCH":2928,"BSTAR":0.00011132,"MEAN_MOTION_DOT":1.546e-5,"MEAN_MOTION_DDOT":0},{"OBJECT_NAME":"STARLINK-35073","OBJECT_ID":"2025-191G","EPOCH":"2026-03-03T03:14:41.630784","MEAN_MOTION":15.05654489,"ECCENTRICITY":0.000189,"INCLINATION":97.6017,"RA_OF_ASC_NODE":295.0726,"ARG_OF_PERICENTER":94.3885,"MEAN_ANOMALY":265.7557,"EPHEMERIS_TYPE":0,"CLASSIFICATION_TYPE":"U","NORAD_CAT_ID":65385,"ELEMENT_SET_NO":999,"REV_AT_EPOCH":2928,"BSTAR":0.0002323,"MEAN_MOTION_DOT":3.293e-5,"MEAN_MOTION_DDOT":0},{"OBJECT_NAME":"STARLINK-35066","OBJECT_ID":"2025-191H","EPOCH":"2026-03-03T02:46:48.132768","MEAN_MOTION":15.05645242,"ECCENTRICITY":0.0002269,"INCLINATION":97.6034,"RA_OF_ASC_NODE":295.1012,"ARG_OF_PERICENTER":87.1828,"MEAN_ANOMALY":272.9658,"EPHEMERIS_TYPE":0,"CLASSIFICATION_TYPE":"U","NORAD_CAT_ID":65386,"ELEMENT_SET_NO":999,"REV_AT_EPOCH":2928,"BSTAR":0.00020434,"MEAN_MOTION_DOT":2.889e-5,"MEAN_MOTION_DDOT":0},{"OBJECT_NAME":"STARLINK-34703","OBJECT_ID":"2025-191J","EPOCH":"2026-03-03T03:06:43.143264","MEAN_MOTION":15.05653126,"ECCENTRICITY":0.0001623,"INCLINATION":97.6021,"RA_OF_ASC_NODE":295.0809,"ARG_OF_PERICENTER":89.2382,"MEAN_ANOMALY":270.9031,"EPHEMERIS_TYPE":0,"CLASSIFICATION_TYPE":"U","NORAD_CAT_ID":65387,"ELEMENT_SET_NO":999,"REV_AT_EPOCH":2928,"BSTAR":0.00022769,"MEAN_MOTION_DOT":3.226e-5,"MEAN_MOTION_DDOT":0},{"OBJECT_NAME":"STARLINK-34957","OBJECT_ID":"2025-191K","EPOCH":"2026-03-03T02:38:49.818912","MEAN_MOTION":15.05656018,"ECCENTRICITY":0.0002163,"INCLINATION":97.604,"RA_OF_ASC_NODE":295.1084,"ARG_OF_PERICENTER":55.9807,"MEAN_ANOMALY":304.1625,"EPHEMERIS_TYPE":0,"CLASSIFICATION_TYPE":"U","NORAD_CAT_ID":65388,"ELEMENT_SET_NO":999,"REV_AT_EPOCH":2928,"BSTAR":0.00051559,"MEAN_MOTION_DOT":7.388e-5,"MEAN_MOTION_DDOT":0},{"OBJECT_NAME":"STARLINK-34993","OBJECT_ID":"2025-191L","EPOCH":"2026-03-03T03:42:36.231264","MEAN_MOTION":15.05650255,"ECCENTRICITY":0.0002626,"INCLINATION":97.6016,"RA_OF_ASC_NODE":295.046,"ARG_OF_PERICENTER":84.8614,"MEAN_ANOMALY":275.2912,"EPHEMERIS_TYPE":0,"CLASSIFICATION_TYPE":"U","NORAD_CAT_ID":65389,"ELEMENT_SET_NO":999,"REV_AT_EPOCH":2928,"BSTAR":0.0001133,"MEAN_MOTION_DOT":1.574e-5,"MEAN_MOTION_DDOT":0},{"OBJECT_NAME":"STARLINK-35083","OBJECT_ID":"2025-191M","EPOCH":"2026-03-03T03:58:34.958496","MEAN_MOTION":15.05643628,"ECCENTRICITY":0.0002828,"INCLINATION":97.6034,"RA_OF_ASC_NODE":295.0341,"ARG_OF_PERICENTER":84.067,"MEAN_ANOMALY":276.0879,"EPHEMERIS_TYPE":0,"CLASSIFICATION_TYPE":"U","NORAD_CAT_ID":65390,"ELEMENT_SET_NO":999,"REV_AT_EPOCH":2928,"BSTAR":0.0005186,"MEAN_MOTION_DOT":7.429e-5,"MEAN_MOTION_DDOT":0},{"OBJECT_NAME":"STARLINK-34786","OBJECT_ID":"2025-191N","EPOCH":"2026-03-03T02:50:46.459392","MEAN_MOTION":15.05652864,"ECCENTRICITY":0.0002347,"INCLINATION":97.6034,"RA_OF_ASC_NODE":295.0964,"ARG_OF_PERICENTER":78.0054,"MEAN_ANOMALY":282.1436,"EPHEMERIS_TYPE":0,"CLASSIFICATION_TYPE":"U","NORAD_CAT_ID":65391,"ELEMENT_SET_NO":999,"REV_AT_EPOCH":2928,"BSTAR":0.00024786,"MEAN_MOTION_DOT":3.518e-5,"MEAN_MOTION_DDOT":0},{"OBJECT_NAME":"STARLINK-35082","OBJECT_ID":"2025-191P","EPOCH":"2026-03-03T04:06:34.390368","MEAN_MOTION":15.05638424,"ECCENTRICITY":0.0002761,"INCLINATION":97.6036,"RA_OF_ASC_NODE":295.1812,"ARG_OF_PERICENTER":87.391,"MEAN_ANOMALY":272.7632,"EPHEMERIS_TYPE":0,"CLASSIFICATION_TYPE":"U","NORAD_CAT_ID":65392,"ELEMENT_SET_NO":999,"REV_AT_EPOCH":2929,"BSTAR":0.00069087,"MEAN_MOTION_DOT":9.919e-5,"MEAN_MOTION_DDOT":0},{"OBJECT_NAME":"STARLINK-35097","OBJECT_ID":"2025-191Q","EPOCH":"2026-03-03T03:22:39.971424","MEAN_MOTION":15.05659471,"ECCENTRICITY":0.0001512,"INCLINATION":97.6015,"RA_OF_ASC_NODE":295.0652,"ARG_OF_PERICENTER":88.4418,"MEAN_ANOMALY":271.6982,"EPHEMERIS_TYPE":0,"CLASSIFICATION_TYPE":"U","NORAD_CAT_ID":65393,"ELEMENT_SET_NO":999,"REV_AT_EPOCH":2783,"BSTAR":0.00026267,"MEAN_MOTION_DOT":3.732e-5,"MEAN_MOTION_DDOT":0},{"OBJECT_NAME":"STARLINK-35058","OBJECT_ID":"2025-191R","EPOCH":"2026-03-03T03:30:40.044384","MEAN_MOTION":15.05673118,"ECCENTRICITY":0.0001898,"INCLINATION":97.6012,"RA_OF_ASC_NODE":295.0581,"ARG_OF_PERICENTER":70.5902,"MEAN_ANOMALY":289.553,"EPHEMERIS_TYPE":0,"CLASSIFICATION_TYPE":"U","NORAD_CAT_ID":65394,"ELEMENT_SET_NO":999,"REV_AT_EPOCH":2928,"BSTAR":0.0010346,"MEAN_MOTION_DOT":0.00014908,"MEAN_MOTION_DDOT":0},{"OBJECT_NAME":"STARLINK-35094","OBJECT_ID":"2025-191S","EPOCH":"2026-03-03T03:34:37.811136","MEAN_MOTION":15.05652083,"ECCENTRICITY":0.0001953,"INCLINATION":97.601,"RA_OF_ASC_NODE":295.0532,"ARG_OF_PERICENTER":74.5918,"MEAN_ANOMALY":285.5525,"EPHEMERIS_TYPE":0,"CLASSIFICATION_TYPE":"U","NORAD_CAT_ID":65395,"ELEMENT_SET_NO":999,"REV_AT_EPOCH":2929,"BSTAR":0.00022442,"MEAN_MOTION_DOT":3.179e-5,"MEAN_MOTION_DDOT":0},{"OBJECT_NAME":"STARLINK-34811","OBJECT_ID":"2025-191T","EPOCH":"2026-03-03T03:54:34.686144","MEAN_MOTION":15.05673048,"ECCENTRICITY":0.000228,"INCLINATION":97.6034,"RA_OF_ASC_NODE":295.0376,"ARG_OF_PERICENTER":80.9313,"MEAN_ANOMALY":279.2172,"EPHEMERIS_TYPE":0,"CLASSIFICATION_TYPE":"U","NORAD_CAT_ID":65396,"ELEMENT_SET_NO":999,"REV_AT_EPOCH":2928,"BSTAR":0.001507,"MEAN_MOTION_DOT":0.00021764,"MEAN_MOTION_DDOT":0},{"OBJECT_NAME":"STARLINK-34940","OBJECT_ID":"2025-191U","EPOCH":"2026-03-03T03:10:44.310720","MEAN_MOTION":15.05624376,"ECCENTRICITY":0.0001755,"INCLINATION":97.6009,"RA_OF_ASC_NODE":295.0754,"ARG_OF_PERICENTER":24.0912,"MEAN_ANOMALY":336.0396,"EPHEMERIS_TYPE":0,"CLASSIFICATION_TYPE":"U","NORAD_CAT_ID":65397,"ELEMENT_SET_NO":999,"REV_AT_EPOCH":2928,"BSTAR":0.00015572,"MEAN_MOTION_DOT":2.185e-5,"MEAN_MOTION_DDOT":0}]
