STARLINK-35028          
1 65381U 25191C   26062.17398010  .00005669  00000+0  39673-3 0  9992
2 65381  97.6033 295.1778 0002284  64.4994 295.6469 15.05651545 29294
STARLINK-35032          
1 65382U 25191D   26062.14350936  .00002112  00000+0  15050-3 0  9998
2 65382  97.6011 295.0606 0001603  93.6170 266.5240 15.05651543 29285
STARLINK-35054          
1 65383U 25191E   26062.16842947  .00003021  00000+0  21346-3 0  9994
2 65383  97.6036 295.0311 0002451  79.1621 280.9881 15.05651559 29286
STARLINK-35012          
1 65384U 25191F   26062.15181593  .00001546  00000+0  11132-3 0  9999
2 65384  97.6013 295.0489 0001944  91.0317 269.1133 15.05649963 29284
STARLINK-35073          
1 65385U 25191G   26062.13520406  .00003293  00000+0  23230-3 0  9991
2 65385  97.6017 295.0726 0001890  94.3885 265.7557 15.05654489 29280
STARLINK-35066          
1 65386U 25191H   26062.11583487  .00002889  00000+0  20434-3 0  9991
2 65386  97.6034 295.1012 0002269  87.1828 272.9658 15.05645242 29286
STARLINK-34703          
1 65387U 25191J   26062.12966601  .00003226  00000+0  22769-3 0  9995
2 65387  97.6021 295.0809 0001623  89.2382 270.9031 15.05653126 29280
STARLINK-34957          
1 65388U 25191K   26062.11029883  .00007388  00000+0  51559-3 0  9999
2 65388  97.6040 295.1084 0002163  55.9807 304.1625 15.05656018 29282
STARLINK-34993          
1 65389U 25191L   26062.15458601  .00001574  00000+0  11330-3 0  9992
2 65389  97.6016 295.0460 0002626  84.8614 275.2912 15.05650255 29288
STARLINK-35083          
1 65390U 25191M   26062.16568239  .00007429  00000+0  51860-3 0  9991
2 65390  97.6034 295.0341 0002828  84.0670 276.0879 15.05643628 29283
STARLINK-34786          
1 65391U 25191N   26062.11859328  .00003518  00000+0  24786-3 0  9991
2 65391  97.6034 295.0964 0002347  78.0054 282.1436 15.05652864 29289
STARLINK-35082          
1 65392U 25191P   26062.17123137  .00009919  00000+0  69087-3 0  9994
2 65392  97.6036 295.1812 0002761  87.3910 272.7632 15.05638424 29299
STARLINK-35097          
1 65393U 25191Q   26062.14074041  .00003732  00000+0  26267-3 0  9991
2 65393  97.6015 295.0652 0001512  88.4418 271.6982 15.05659471 27835
STARLINK-35058          
1 65394U 25191R   26062.14629681  .00014908  00000+0  10346-2 0  9995
2 65394  97.6012 295.0581 0001898  70.5902 289.5530 15.05673118 29283
STARLINK-35094          
1 65395U 25191S   26062.14904874  .00003179  00000+0  22442-3 0  9995
2 65395  97.6010 295.0532 0001953  74.5918 285.5525 15.05652083 29290
STARLINK-34811          
1 65396U 25191T   26062.16290146  .00021764  00000+0  15070-2 0  9996
2 65396  97.6034 295.0376 0002280  80.9313 279.2172 15.05673048 29288
STARLINK-34940          
1 65397U 25191U   26062.13245730  .00002185  00000+0  15572-3 0  9997
2 65397  97.6009 295.0754 0001755  24.0912 336.0396 15.05624376 29281
